satname,norad_id,inclination_deg,eccentricity,mean_motion_rev_per_day,perigee_km,apogee_km,l1,l2
STARLINK-1297,45395,53.0499,0.0001485,15.49792654,416.32298280867144,418.3412371343338,1 45395U 20019AM  26046.79259685  .00081296  00000+0  14299-2 0  9999,2 45395  53.0499 236.0664 0001485 173.2759 186.8269 15.49792654326011
STARLINK-1307,45397,53.0542,0.0001187,15.48709044,419.6945383424345,421.3085351310556,1 45397U 20019AP  26046.75068666  .00028371  00000+0  52720-3 0  9991,2 45397  53.0542 235.9007 0001187 100.8180 259.2961 15.48709044326658
STARLINK-1255,45399,53.0442,0.0004688,15.47742417,420.14339453907996,426.5204518014443,1 45399U 20019AR  26046.82669953  .00077478  00000+0  14647-2 0  9994,2 45399  53.0442 207.6227 0004688 165.6101 194.5040 15.47742417327043
STARLINK-1260,45404,53.1614,0.000124,15.30190801,474.3927170503148,476.0923551752703,1 45404U 20019AW  26046.68664832  .00000187  00000+0  18449-4 0  9995,2 45404  53.1614 231.4403 0001240  91.2225 268.8918 15.30190801326601
STARLINK-1263,45405,53.1591,0.0001354,15.3019687,474.29646991546997,476.15236018666565,1 45405U 20019AX  26046.80569290  .00000656  00000+0  34291-4 0  9996,2 45405  53.1591 230.9160 0001354  94.1553 265.9602 15.30196870326624
STARLINK-1265,45406,53.16,0.0001351,15.30192252,474.3123126583396,476.1640946383668,1 45406U 20019AY  26046.75513955  .00000788  00000+0  38754-4 0  9992,2 45406  53.1600 231.2285 0001351  87.9695 272.1460 15.30192252326613
STARLINK-1278,45408,53.0474,0.0004917,15.51318395,409.5366192059664,416.2149011543279,1 45408U 20019BA  26046.77951982  .00101735  00000+0  16883-2 0  9993,2 45408  53.0474 236.0942 0004917 127.4151 232.7305 15.51318395326558
STARLINK-1296,45412,53.1601,0.000127,15.30196951,474.3537963298577,476.09455006785083,1 45412U 20019BE  26046.74880388  .00001026  00000+0  46763-4 0  9990,2 45412  53.1601 231.1599 0001270  90.8659 269.2487 15.30196951326617
STARLINK-1298,45413,53.0386,0.0006469,15.85334263,311.0536602134034,319.7137372934503,1 45413U 20019BF  26046.91668981  .00257724  00000+0  10290-2 0  9995,2 45413  53.0386 164.8404 0006469 280.7010 349.2154 15.85334263  6042
STARLINK-1309,45414,53.0685,3.08e-05,15.50587755,414.799656166575,415.21811395309487,1 45414U 20019BG  26046.74157141  .00086036  00000+0  14700-2 0  9994,2 45414  53.0685 229.2905 0000308 347.1678  12.9322 15.50587755326629
STARLINK-1316,45415,53.1602,0.0001258,15.30200409,474.3516966826128,476.07599975602443,1 45415U 20019BH  26046.79410396  .00001395  00000+0  59222-4 0  9999,2 45415  53.1602 230.9996 0001258  97.8036 262.3107 15.30200409326641
STARLINK-1318,45416,53.0323,0.0007049,15.97874228,275.62411188529313,285.0112012601294,1 45416U 20019BJ  26046.91668981  .00584867  15771-3  12599-2 0  9998,2 45416  53.0323 150.5302 0007049 330.5554 357.7633 15.97874228  5999
STARLINK-1286,45417,53.0475,0.0002026,15.49161484,417.8006197857758,420.55489172480793,1 45417U 20019BK  26046.74746980  .00038533  00000+0  70099-3 0  9995,2 45417  53.0475 236.0094 0002026  85.2168 274.9071 15.49161484326825
STARLINK-1308,45419,53.0529,0.0002254,15.43364382,434.6523068462284,437.7242046715246,1 45419U 20019BM  26046.79979331  .00113883  00000+0  24851-2 0  9996,2 45419  53.0529 256.8630 0002254 140.6851 219.4318 15.43364382326285
STARLINK-1329,45531,53.0507,0.0004409,15.51707039,408.74812716653196,414.73544227890125,1 45531U 20025A   26046.91668981  .00098439  00000+0  16122-2 0  9999,2 45531  53.0507 186.4394 0004409 180.9941 260.4358 15.51707039  5960
STARLINK-1338,45532,53.0511,0.0004771,15.50550722,411.8759870879194,418.35811010108773,1 45532U 20025B   26046.75099363  .00065237  00000+0  11206-2 0  9992,2 45532  53.0511 190.4006 0004771 233.1751 126.8820 15.50550722321990
STARLINK-1350,45535,53.0719,9.42e-05,15.35491803,458.81599293317777,460.10419622579593,1 45535U 20025E   26046.72981399  .00013916  00000+0  40790-3 0  9999,2 45535  53.0719 136.2266 0000942  71.6560 288.4544 15.35491803322781
STARLINK-1362,45538,53.1579,0.0001353,15.29368266,476.7720079455512,478.6271973302237,1 45538U 20025H   26046.70631316  .00003381  00000+0  12939-3 0  9990,2 45538  53.1579 203.0651 0001353 104.1671 255.9479 15.29368266321810
STARLINK-1368,45540,53.1555,0.0001197,15.29328843,476.9967641083995,478.6380795969899,1 45540U 20025K   26046.91668981  .00054599  00000+0  18921-2 0  9997,2 45540  53.1555 202.4470 0001197 102.5403 271.7107 15.29328843  5786
STARLINK-1371,45542,53.0515,0.0003865,15.43677083,432.63459665686514,437.901358704612,1 45542U 20025M   26046.56210346  .00029994  00000+0  66139-3 0  9994,2 45542  53.0515 194.8218 0003865 185.1919 174.9047 15.43677083321912
STARLINK-1372,45543,53.1626,0.0001301,15.30198693,474.32735027656963,476.11059350045616,1 45543U 20025N   26046.69651776 -.00000064  00000+0  99734-5 0  9992,2 45543  53.1626 203.1772 0001301  71.5185 288.5958 15.30198693320904
STARLINK-1373,45544,53.051,0.0004197,15.46468085,424.2116633659016,429.92395228158784,1 45544U 20025P   26046.56145920  .00089442  00000+0  17632-2 0  9998,2 45544  53.0510 194.9340 0004197 258.2846 101.7690 15.46468085321911
STARLINK-1294,45551,53.0305,0.0009129,15.93240233,287.13202110198836,299.3125889210796,1 45551U 20025W   26046.91668981  .00435522  85248-4  12057-2 0  9994,2 45551  53.0305  86.6725 0009129  25.6725 330.0076 15.93240233  5994
STARLINK-1327,45555,53.0484,0.0003332,15.49682332,415.3902616769201,419.9189772121181,1 45555U 20025AA  26046.56054258  .00100960  00000+0  17761-2 0  9995,2 45555  53.0484 173.0890 0003332 322.0448  38.0325 15.49682332322216
STARLINK-1356,45564,53.0524,0.0003712,15.42433723,436.39852715294364,441.45951696772136,1 45564U 20025AK  26046.78036026  .00073962  00000+0  16769-2 0  9990,2 45564  53.0524 177.9526 0003712 307.3733  52.6933 15.42433723322167
STARLINK-1357,45565,53.0547,0.000162,15.51006098,412.6870237425446,414.8876072207604,1 45565U 20025AL  26046.57840384  .00089848  00000+0  15114-2 0  9991,2 45565  53.0547 144.6018 0001620 321.8116  38.2777 15.51006098322620
STARLINK-1361,45567,53.0519,0.0004848,15.43784953,431.64760381315955,438.2535735391384,1 45567U 20025AN  26046.91668981  .00117676  00000+0  25295-2 0  9994,2 45567  53.0519 177.6989 0004848 313.5803 145.5223 15.43784953  5620
STARLINK-1363,45568,53.0454,0.0007344,15.7148098,349.71907471762825,359.60821230281726,1 45568U 20025AP  26046.91668981  .00155785  00000+0  11750-2 0  9999,2 45568  53.0454 146.0475 0007344 343.2467 355.4929 15.71480980  6001
STARLINK-1366,45569,53.0461,0.0006996,15.71108701,351.01616190531604,360.43818465657023,1 45569U 20025AQ  26046.91668981  .00103600  00000+0  80028-3 0  9994,2 45569  53.0461 146.7209 0006996 338.8785 323.4208 15.71108701  6000
STARLINK-1376,45570,53.1613,0.000151,15.29360055,476.6889065071673,478.759376571913,1 45570U 20025AR  26046.56542625  .00000158  00000+0  17824-4 0  9992,2 45570  53.1613 180.4367 0001510  93.4899 266.6274 15.29360055322118
STARLINK-1320,45572,53.05,0.0007962,15.64143541,370.32563944650155,381.08045433717234,1 45572U 20025AT  26046.91668981  .00003810  00000+0  45034-4 0  9999,2 45572  53.0500  92.8355 0007962 329.2046 344.2953 15.64143541  5874
STARLINK-1321,45573,53.0518,0.0002141,15.44608758,431.06973861708866,433.9860653281139,1 45573U 20025AU  26046.58998811  .00086451  00000+0  18173-2 0  9995,2 45573  53.0518 163.9515 0002141 287.8570  72.2202 15.44608758322047
STARLINK-1331,45578,53.0552,0.0001389,15.44634037,431.507603254714,433.39958532180844,1 45578U 20025AZ  26046.79110972  .00078994  00000+0  16616-2 0  9990,2 45578  53.0552 169.6541 0001389  48.2036 311.9088 15.44634037322292
STARLINK-1333,45580,53.1621,0.0001488,15.30198596,474.19948210174334,476.23904092517023,1 45580U 20025BB  26046.74759605  .00000399  00000+0  25612-4 0  9992,2 45580  53.1621 179.7252 0001488  69.4565 290.6595 15.30198596322146
STARLINK-1335,45581,53.0554,0.0001505,15.06395376,546.1834627777052,548.2679969593955,1 45581U 20025BC  26046.76899973 -.00000515  00000+0 -15677-4 0  9990,2 45581  53.0554 175.0235 0001505 109.4906 250.6245 15.06395376322208
STARLINK-1337,45582,53.0548,0.0001623,15.54090372,403.69722497629846,405.89896570824567,1 45582U 20025BD  26046.78438201  .00093089  00000+0  14007-2 0  9996,2 45582  53.0548 167.8332 0001623  40.1758 319.9371 15.54090372322307
STARLINK-1347,45586,53.0486,0.0005065,15.49830404,413.7799132004593,420.6636116267846,1 45586U 20025BH  26046.65586565  .00075491  00000+0  13271-2 0  9992,2 45586  53.0486 135.5129 0005065 315.5169  44.5432 15.49830404322746
STARLINK-1364,45589,53.0536,0.0004554,15.4569006,426.2510916489018,432.4513519213051,1 45589U 20025BL  26046.60013168  .00085333  00000+0  17289-2 0  9993,2 45589  53.0536 168.7917 0004554 331.0869  28.9884 15.45690060322273
STARLINK-1365,45590,53.0532,1.57e-05,15.42756387,437.87145997782136,438.0854860036734,1 45590U 20025BM  26046.78908669  .00021106  00000+0  48337-3 0  9990,2 45590  53.0532 197.6673 0000157 177.2083 182.8922 15.42756387321908
STARLINK-1443,45660,53.055,0.0001293,15.0642588,546.2368032884315,548.0276779140513,1 45660U 20035D   26046.79571911  .00007028  00000+0  48989-3 0  9996,2 45660  53.0550 164.9048 0001293  83.6172 276.4964 15.06425880315438
STARLINK-1446,45663,53.0241,0.000182,15.41919367,439.2039879359472,441.68595177297357,1 45663U 20035G   26046.58536943  .00019387  00000+0  45742-3 0  9997,2 45663  53.0241 104.2940 0001820 176.3737 183.7280 15.41919367316269
STARLINK-1448,45665,53.0525,0.0004994,15.47882767,419.52433241291965,426.31722892425114,1 45665U 20035J   26046.79208731  .00089116  00000+0  16728-2 0  9991,2 45665  53.0525 157.8007 0004994   0.4986 359.6025 15.47882767315520
STARLINK-1451,45668,53.0524,0.0001043,15.08908591,538.8122286010184,540.2552547177283,1 45668U 20035M   26046.69821088  .00028034  00000+0  17691-2 0  9991,2 45668  53.0524 165.2563 0001043 226.2344 133.8559 15.08908591315424
